[{"OBJECT_NAME":"STARLINK-4331","OBJECT_ID":"2022-077D","EPOCH":"2026-03-09T22:56:43.694592","MEAN_MOTION":15.05646487,"ECCENTRICITY":0.00018087,"INCLINATION":97.6022,"RA_OF_ASC_NODE":251.581,"ARG_OF_PERICENTER":88.4059,"MEAN_ANOMALY":271.7375,"EPHEMERIS_TYPE":0,"CLASSIFICATION_TYPE":"U","NORAD_CAT_ID":53046,"ELEMENT_SET_NO":999,"REV_AT_EPOCH":20103,"BSTAR":7.98898e-7,"MEAN_MOTION_DOT":-4.9e-7,"MEAN_MOTION_DDOT":0},{"OBJECT_NAME":"OBJECT G","OBJECT_ID":"2024-205G","EPOCH":"2026-03-09T23:05:54.449664","MEAN_MOTION":15.09392775,"ECCENTRICITY":0.00211709,"INCLINATION":97.4199,"RA_OF_ASC_NODE":141.9686,"ARG_OF_PERICENTER":130.0324,"MEAN_ANOMALY":230.2768,"EPHEMERIS_TYPE":0,"CLASSIFICATION_TYPE":"U","NORAD_CAT_ID":61900,"ELEMENT_SET_NO":999,"REV_AT_EPOCH":7318,"BSTAR":0.00059967322,"MEAN_MOTION_DOT":9.576e-5,"MEAN_MOTION_DDOT":0}]
